STARLINK-33745          
1 63714U 25087T   26157.58982775  .00020030  00000+0  68637-3 0  9992
2 63714  53.1568 166.4081 0001133  83.9970 276.1160 15.30209812 62812
STARLINK-33728          
1 63715U 25087U   26156.35623891  .00023846  00000+0  81469-3 0  9994
2 63715  53.1562 172.2207 0001516  65.1528 294.9630 15.30198549 62621
STARLINK-33749          
1 63716U 25087V   26157.52983396  .00013261  00000+0  43811-3 0  9993
2 63716  53.1575 166.7457 0001209  93.5030 266.6110 15.31717155 62803
STARLINK-33725          
1 63717U 25087W   26156.68597906  .00025051  00000+0  85504-3 0  9993
2 63717  53.1575 170.7219 0001482  71.3712 288.7449 15.30201043 62677
STARLINK-33641          
1 63718U 25087X   26157.31541590  .00018662  00000+0  61088-3 0  9994
2 63718  53.1570 167.5347 0001034  81.2360 278.8758 15.31739176 62779
STARLINK-33727          
1 63719U 25087Y   26156.36553739  .00026435  00000+0  79057-3 0  9999
2 63719  53.1583 170.8636 0001022  96.6268 263.4851 15.34407234 62646
STARLINK-33757          
1 63720U 25087Z   26157.54562299  .00033504  00000+0  11378-2 0  9999
2 63720  53.1596 166.8394 0002314  36.3576 323.7581 15.30211083 62805
STARLINK-33774          
1 63721U 25087AA  26157.52049780  .00034028  00000+0  11022-2 0  9991
2 63721  53.1571 166.6885 0001214  48.2826 311.8279 15.31732544 62803
STARLINK-33767          
1 63722U 25087AB  26157.59827573  .00021964  00000+0  75194-3 0  9999
2 63722  53.1585 166.4665 0002506  37.1462 322.9711 15.30180747 62817
STARLINK-33806          
1 63723U 25087AC  26156.36362570  .00025206  00000+0  85969-3 0  9999
2 63723  53.1588 172.2614 0001249  63.5950 296.5179 15.30222391 62623
STARLINK-11677 [DTC]    
1 63751U 25089A   26157.58964319  .00278040  00000+0  20680-2 0  9990
2 63751  43.0011 116.7009 0002429   3.1218 356.9665 15.71190169 64111
STARLINK-11702 [DTC]    
1 63752U 25089B   26157.18158628  .00280687  00000+0  21037-2 0  9992
2 63752  43.0001 118.7872 0002039 239.1513 120.9155 15.71000207 64056
STARLINK-11706 [DTC]    
1 63753U 25089C   26157.35639793  .00220798  00000+0  16712-2 0  9990
2 63753  43.0014 117.5098 0002924 256.2167 103.8375 15.70948271 64084
STARLINK-11662 [DTC]    
1 63754U 25089D   26157.19220457  .00058048  00000+0  45188-3 0  9993
2 63754  43.0016 118.8718 0001880 265.3153  94.7500 15.70883489 64106
STARLINK-11681 [DTC]    
1 63755U 25089E   26157.58428403  .00228788  00000+0  17175-2 0  9992
2 63755  43.0023 116.6593 0011141 262.4299  97.5303 15.71050818 64118
STARLINK-11688 [DTC]    
1 63756U 25089F   26157.18689607  .00210469  00000+0  15969-2 0  9990
2 63756  42.9989 118.8341 0000775 231.9251 128.1547 15.70923485 63942
STARLINK-11676 [DTC]    
1 63757U 25089G   26157.60012618  .00288011  00000+0  21379-2 0  9990
2 63757  43.0006 115.8861 0002466 311.6499  48.4158 15.71207147 64010
STARLINK-11705 [DTC]    
1 63758U 25089H   26157.19751646  .00233774  00000+0  17637-2 0  9994
2 63758  42.9995 118.9127 0001102 222.8135 137.2647 15.70986703 64001
STARLINK-11703 [DTC]    
1 63759U 25089J   26157.17627770  .00242123  00000+0  18249-2 0  9991
2 63759  42.9992 118.7428 0001488 239.2730 120.7991 15.70984148 64056
STARLINK-11701 [DTC]    
1 63760U 25089K   26157.60544230  .00286747  00000+0  21448-2 0  9995
2 63760  43.0001 115.9282 0000869 293.6995  66.3782 15.71030149 64122
STARLINK-11660 [DTC]    
1 63761U 25089L   26157.17096760  .00352745  00000+0  26163-2 0  9999
2 63761  42.9997 118.6972 0002358 239.9729 120.0905 15.71032385 64000
STARLINK-11699 [DTC]    
1 63762U 25089M   26156.25970488  .00148624  00000+0  11418-2 0  9992
2 63762  43.0012 124.7968 0001824 297.5517  62.5166 15.70825980 63903
STARLINK-11693 [DTC]    
1 63763U 25089N   26156.60496010  .00292778  00000+0  21735-2 0  9999
2 63763  42.9986 122.1988 0001526 340.1658  19.9150 15.71191246 63851
STARLINK-33760          
1 63764U 25089P   26157.59876668  .00022574  00000+0  82686-3 0  9998
2 63764  43.0008 263.2453 0001665 270.9507  89.1154 15.27597876 62559
STARLINK-33941          
1 63765U 25089Q   26157.60132240  .00020451  00000+0  74991-3 0  9994
2 63765  43.0014 263.2691 0001419 276.7700  83.2990 15.27612465 62541
STARLINK-33824          
1 63766U 25089R   26157.02956506  .00026177  00000+0  95684-3 0  9993
2 63766  42.9998 266.7143 0000307 153.0432 207.0436 15.27598978 62469
STARLINK-33808          
1 63767U 25089S   26157.58975746  .00020748  00000+0  76063-3 0  9990
2 63767  42.9988 263.1757 0002312 282.2434  77.8158 15.27610802 62551
STARLINK-33844          
1 63768U 25089T   26157.57048149  .00020225  00000+0  74161-3 0  9995
2 63768  42.9984 263.0312 0002437 278.7184  81.3391 15.27616340 62556
STARLINK-33907          
1 63769U 25089U   26157.59489379  .00019210  00000+0  70509-3 0  9996
2 63769  43.0005 263.2151 0001867 278.7019  81.3621 15.27612263 62500
