OBJECT_NAME,OBJECT_ID,EPOCH,MEAN_MOTION,ECCENTRICITY,INCLINATION,RA_OF_ASC_NODE,ARG_OF_PERICENTER,MEAN_ANOMALY,EPHEMERIS_TYPE,CLASSIFICATION_TYPE,NORAD_CAT_ID,ELEMENT_SET_NO,REV_AT_EPOCH,BSTAR,MEAN_MOTION_DOT,MEAN_MOTION_DDOT
STARLINK-33745,2025-087T,2026-06-06T14:09:21.117600,15.30209812,.0001133,53.1568,166.4081,83.9970,276.1160,0,U,63714,999,6281,.6863689E-3,.2003E-3,0
STARLINK-33728,2025-087U,2026-06-05T08:32:59.041824,15.30198549,.00015168,53.1562,172.2207,65.1528,294.9630,0,U,63715,999,6262,.81469327E-3,.23846E-3,0
STARLINK-33749,2025-087V,2026-06-06T12:42:57.654144,15.31717155,.00012097,53.1575,166.7457,93.5030,266.6110,0,U,63716,999,6280,.43811085E-3,.13261E-3,0
STARLINK-33725,2025-087W,2026-06-05T16:27:48.590784,15.30201043,.00014827,53.1575,170.7219,71.3712,288.7449,0,U,63717,999,6267,.85504142E-3,.25051E-3,0
STARLINK-33641,2025-087X,2026-06-06T07:34:11.933760,15.31739176,.00010349,53.1570,167.5347,81.2360,278.8758,0,U,63718,999,6277,.61087921E-3,.18662E-3,0
STARLINK-33727,2025-087Y,2026-06-05T08:46:22.430496,15.34407234,.00010225,53.1583,170.8636,96.6268,263.4851,0,U,63719,999,6264,.79056795E-3,.26435E-3,0
STARLINK-33757,2025-087Z,2026-06-06T13:05:41.826336,15.30211083,.00023146,53.1596,166.8394,36.3576,323.7581,0,U,63720,999,6280,.11378192E-2,.33504E-3,0
STARLINK-33774,2025-087AA,2026-06-06T12:29:31.009920,15.31732544,.00012148,53.1571,166.6885,48.2826,311.8279,0,U,63721,999,6280,.11021934E-2,.34028E-3,0
STARLINK-33767,2025-087AB,2026-06-06T14:21:31.023072,15.30180747,.00025065,53.1585,166.4665,37.1462,322.9711,0,U,63722,999,6281,.75193741E-3,.21964E-3,0
STARLINK-33806,2025-087AC,2026-06-05T08:43:37.260480,15.30222391,.00012493,53.1588,172.2614,63.5950,296.5179,0,U,63723,999,6262,.8596926E-3,.25206E-3,0
STARLINK-11677 [DTC],2025-089A,2026-06-06T14:09:05.171616,15.71190169,.00024297,43.0011,116.7009,3.1218,356.9665,0,U,63751,999,6411,.20679923E-2,.27804E-2,0
STARLINK-11702 [DTC],2025-089B,2026-06-06T04:21:29.054592,15.71000207,.00020394,43.0001,118.7872,239.1513,120.9155,0,U,63752,999,6405,.21037192E-2,.280687E-2,0
STARLINK-11706 [DTC],2025-089C,2026-06-06T08:33:12.781152,15.70948271,.0002924,43.0014,117.5098,256.2167,103.8375,0,U,63753,999,6408,.16711829E-2,.220798E-2,0
STARLINK-11662 [DTC],2025-089D,2026-06-06T04:36:46.474848,15.70883489,.00018806,43.0016,118.8718,265.3153,94.7500,0,U,63754,999,6410,.45188416E-3,.58048E-3,0
STARLINK-11681 [DTC],2025-089E,2026-06-06T14:01:22.140192,15.71050818,.00111414,43.0023,116.6593,262.4299,97.5303,0,U,63755,999,6411,.17175495E-2,.228788E-2,0
STARLINK-11688 [DTC],2025-089F,2026-06-06T04:29:07.820448,15.70923485,.00007755,42.9989,118.8341,231.9251,128.1547,0,U,63756,999,6394,.1596926E-2,.210469E-2,0
STARLINK-11676 [DTC],2025-089G,2026-06-06T14:24:10.901952,15.71207147,.00024667,43.0006,115.8861,311.6499,48.4158,0,U,63757,999,6401,.21379193E-2,.288011E-2,0
STARLINK-11705 [DTC],2025-089H,2026-06-06T04:44:25.422144,15.70986703,.00011023,42.9995,118.9127,222.8135,137.2647,0,U,63758,999,6400,.17636885E-2,.233774E-2,0
STARLINK-11703 [DTC],2025-089J,2026-06-06T04:13:50.393280,15.70984148,.00014884,42.9992,118.7428,239.2730,120.7991,0,U,63759,999,6405,.1824908E-2,.242123E-2,0
STARLINK-11701 [DTC],2025-089K,2026-06-06T14:31:50.214720,15.71030149,.00008692,43.0001,115.9282,293.6995,66.3782,0,U,63760,999,6412,.21447546E-2,.286747E-2,0
STARLINK-11660 [DTC],2025-089L,2026-06-06T04:06:11.600640,15.71032385,.00023582,42.9997,118.6972,239.9729,120.0905,0,U,63761,999,6400,.26163299E-2,.352745E-2,0
STARLINK-11699 [DTC],2025-089M,2026-06-05T06:13:58.501632,15.70825980,.0001824,43.0012,124.7968,297.5517,62.5166,0,U,63762,999,6390,.11418E-2,.148624E-2,0
STARLINK-11693 [DTC],2025-089N,2026-06-05T14:31:08.552640,15.71191246,.00015266,42.9986,122.1988,340.1658,19.9150,0,U,63763,999,6385,.21734769E-2,.292778E-2,0
STARLINK-33760,2025-089P,2026-06-06T14:22:13.441152,15.27597876,.00016651,43.0008,263.2453,270.9507,89.1154,0,U,63764,999,6255,.82686092E-3,.22574E-3,0
STARLINK-33941,2025-089Q,2026-06-06T14:25:54.255360,15.27612465,.00014194,43.0014,263.2691,276.7700,83.2990,0,U,63765,999,6254,.7499094E-3,.20451E-3,0
STARLINK-33824,2025-089R,2026-06-06T00:42:34.421184,15.27598978,.00003073,42.9998,266.7143,153.0432,207.0436,0,U,63766,999,6246,.95684009E-3,.26177E-3,0
STARLINK-33808,2025-089S,2026-06-06T14:09:15.044544,15.27610802,.00023126,42.9988,263.1757,282.2434,77.8158,0,U,63767,999,6255,.76062597E-3,.20748E-3,0
STARLINK-33844,2025-089T,2026-06-06T13:41:29.600736,15.27616340,.00024372,42.9984,263.0312,278.7184,81.3391,0,U,63768,999,6255,.74160932E-3,.20225E-3,0
STARLINK-33907,2025-089U,2026-06-06T14:16:38.823456,15.27612263,.00018679,43.0005,263.2151,278.7019,81.3621,0,U,63769,999,6250,.70509276E-3,.1921E-3,0
